{
  "type": "FeatureCollection",
  "features": [
    {
      "type": "Feature",
      "properties": {
        "norad_id": 40069,
        "name": "METEOR-M 2",
        "group": "weather",
        "lat": -77.34311773657537,
        "lon": 103.63432319304627,
        "alt_km": 825.8719181603255,
        "timestamp": "2025-12-13T18:50:04.071146+00:00",
        "meta_object_name": "METEOR-M 2",
        "meta_object_id": "2014-037A",
        "meta_epoch": "2025-12-13T05:47:10.118112",
        "meta_mean_motion": 14.21386012,
        "meta_eccentricity": 0.0004973,
        "meta_inclination": 98.4904,
        "meta_ra_of_asc_node": 324.8063,
        "meta_arg_of_pericenter": 208.3354,
        "meta_mean_anomaly": 151.7554,
        "meta_ephemeris_type": 0,
        "meta_classification_type": "U",
        "meta_norad_cat_id": 40069,
        "meta_element_set_no": 999,
        "meta_rev_at_epoch": 59290,
        "meta_bstar": 3.7695545e-05,
        "meta_mean_motion_dot": 4e-07,
        "meta_mean_motion_ddot": 0,
        "tle_line1": "1 40069U 14037A   25347.24108933  .00000040  00000+0  37696-4 0  9993",
        "tle_line2": "2 40069  98.4904 324.8063 0004973 208.3354 151.7554 14.21386012592900"
      },
      "geometry": {
        "type": "Point",
        "coordinates": [
          103.63432319304627,
          -77.34311773657537
        ]
      }
    },
    {
      "type": "Feature",
      "properties": {
        "norad_id": 40267,
        "name": "HIMAWARI-8",
        "group": "weather",
        "lat": -0.01610891254928407,
        "lon": 145.86844820886049,
        "alt_km": 35788.57770791697,
        "timestamp": "2025-12-13T18:50:04.071158+00:00",
        "meta_object_name": "HIMAWARI-8",
        "meta_object_id": "2014-060A",
        "meta_epoch": "2025-12-13T03:40:38.850816",
        "meta_mean_motion": 1.00273756,
        "meta_eccentricity": 0.00010091,
        "meta_inclination": 0.0364,
        "meta_ra_of_asc_node": 182.2561,
        "meta_arg_of_pericenter": 98.0334,
        "meta_mean_anomaly": 357.6136,
        "meta_ephemeris_type": 0,
        "meta_classification_type": "U",
        "meta_norad_cat_id": 40267,
        "meta_element_set_no": 999,
        "meta_rev_at_epoch": 4089,
        "meta_bstar": 0,
        "meta_mean_motion_dot": -2.62e-06,
        "meta_mean_motion_ddot": 0,
        "tle_line1": "1 40267U 14060A   25347.15322744 -.00000262  00000+0  00000+0 0  9998",
        "tle_line2": "2 40267   0.0364 182.2561 0001009  98.0334 357.6136  1.00273756 40899"
      },
      "geometry": {
        "type": "Point",
        "coordinates": [
          145.86844820886049,
          -0.01610891254928407
        ]
      }
    },
    {
      "type": "Feature",
      "properties": {
        "norad_id": 40367,
        "name": "FENGYUN 2G",
        "group": "weather",
        "lat": 2.5713588214311995,
        "lon": 104.61666980620251,
        "alt_km": 35800.8826003106,
        "timestamp": "2025-12-13T18:50:04.071170+00:00",
        "meta_object_name": "FENGYUN 2G",
        "meta_object_id": "2014-090A",
        "meta_epoch": "2025-12-12T19:43:26.315040",
        "meta_mean_motion": 1.00264152,
        "meta_eccentricity": 0.00031038,
        "meta_inclination": 5.1689,
        "meta_ra_of_asc_node": 75.0978,
        "meta_arg_of_pericenter": 198.3363,
        "meta_mean_anomaly": 203.7148,
        "meta_ephemeris_type": 0,
        "meta_classification_type": "U",
        "meta_norad_cat_id": 40367,
        "meta_element_set_no": 999,
        "meta_rev_at_epoch": 4013,
        "meta_bstar": 0,
        "meta_mean_motion_dot": -2.89e-06,
        "meta_mean_motion_ddot": 0,
        "tle_line1": "1 40367U 14090A   25346.82183235 -.00000289  00000+0  00000+0 0  9994",
        "tle_line2": "2 40367   5.1689  75.0978 0003103 198.3363 203.7148  1.00264152 40131"
      },
      "geometry": {
        "type": "Point",
        "coordinates": [
          104.61666980620251,
          2.5713588214311995
        ]
      }
    },
    {
      "type": "Feature",
      "properties": {
        "norad_id": 40732,
        "name": "METEOSAT-11 (MSG-4)",
        "group": "weather",
        "lat": -2.2972097487977416,
        "lon": 14.52979527923404,
        "alt_km": 35791.374704178386,
        "timestamp": "2025-12-13T18:50:04.071188+00:00",
        "meta_object_name": "METEOSAT-11 (MSG-4)",
        "meta_object_id": "2015-034A",
        "meta_epoch": "2025-12-13T04:55:58.224000",
        "meta_mean_motion": 1.00267634,
        "meta_eccentricity": 9.244e-05,
        "meta_inclination": 2.7366,
        "meta_ra_of_asc_node": 71.9998,
        "meta_arg_of_pericenter": 127.3211,
        "meta_mean_anomaly": 326.0967,
        "meta_ephemeris_type": 0,
        "meta_classification_type": "U",
        "meta_norad_cat_id": 40732,
        "meta_element_set_no": 999,
        "meta_rev_at_epoch": 535,
        "meta_bstar": 0,
        "meta_mean_motion_dot": 7.4e-07,
        "meta_mean_motion_ddot": 0,
        "tle_line1": "1 40732U 15034A   25347.20553500  .00000074  00000+0  00000+0 0  9999",
        "tle_line2": "2 40732   2.7366  71.9998 0000924 127.3211 326.0967  1.00267634  5352"
      },
      "geometry": {
        "type": "Point",
        "coordinates": [
          14.52979527923404,
          -2.2972097487977416
        ]
      }
    },
    {
      "type": "Feature",
      "properties": {
        "norad_id": 41105,
        "name": "ELEKTRO-L 2",
        "group": "weather",
        "lat": -6.16729115428791,
        "lon": -9.177884640735142,
        "alt_km": 35782.25740583687,
        "timestamp": "2025-12-13T18:50:04.071207+00:00",
        "meta_object_name": "ELEKTRO-L 2",
        "meta_object_id": "2015-074A",
        "meta_epoch": "2025-12-13T00:37:38.678304",
        "meta_mean_motion": 1.00272374,
        "meta_eccentricity": 0.00038946,
        "meta_inclination": 6.2268,
        "meta_ra_of_asc_node": 72.8255,
        "meta_arg_of_pericenter": 203.8607,
        "meta_mean_anomaly": 160.1915,
        "meta_ephemeris_type": 0,
        "meta_classification_type": "U",
        "meta_norad_cat_id": 41105,
        "meta_element_set_no": 999,
        "meta_rev_at_epoch": 3664,
        "meta_bstar": 0,
        "meta_mean_motion_dot": -1.06e-06,
        "meta_mean_motion_ddot": 0,
        "tle_line1": "1 41105U 15074A   25347.02614211 -.00000106  00000+0  00000+0 0  9992",
        "tle_line2": "2 41105   6.2268  72.8255 0003894 203.8607 160.1915  1.00272374 36644"
      },
      "geometry": {
        "type": "Point",
        "coordinates": [
          -9.177884640735142,
          -6.16729115428791
        ]
      }
    },
    {
      "type": "Feature",
      "properties": {
        "norad_id": 41752,
        "name": "INSAT-3DR",
        "group": "weather",
        "lat": 0.008781950402798208,
        "lon": 79.24681626605619,
        "alt_km": 35845.77815390841,
        "timestamp": "2025-12-13T18:50:04.071220+00:00",
        "meta_object_name": "INSAT-3DR",
        "meta_object_id": "2016-054A",
        "meta_epoch": "2025-12-13T01:16:38.512128",
        "meta_mean_motion": 1.00270943,
        "meta_eccentricity": 0.00143373,
        "meta_inclination": 0.0927,
        "meta_ra_of_asc_node": 86.7145,
        "meta_arg_of_pericenter": 184.0835,
        "meta_mean_anomaly": 264.3487,
        "meta_ephemeris_type": 0,
        "meta_classification_type": "U",
        "meta_norad_cat_id": 41752,
        "meta_element_set_no": 999,
        "meta_rev_at_epoch": 3395,
        "meta_bstar": 0,
        "meta_mean_motion_dot": -6.4e-07,
        "meta_mean_motion_ddot": 0,
        "tle_line1": "1 41752U 16054A   25347.05322352 -.00000064  00000+0  00000+0 0  9997",
        "tle_line2": "2 41752   0.0927  86.7145 0014337 184.0835 264.3487  1.00270943 33957"
      },
      "geometry": {
        "type": "Point",
        "coordinates": [
          79.24681626605619,
          0.008781950402798208
        ]
      }
    },
    {
      "type": "Feature",
      "properties": {
        "norad_id": 41836,
        "name": "HIMAWARI-9",
        "group": "weather",
        "lat": 0.028117535073497887,
        "lon": 145.99171322988488,
        "alt_km": 35788.59448807442,
        "timestamp": "2025-12-13T18:50:04.071233+00:00",
        "meta_object_name": "HIMAWARI-9",
        "meta_object_id": "2016-064A",
        "meta_epoch": "2025-12-12T22:42:33.992928",
        "meta_mean_motion": 1.00273884,
        "meta_eccentricity": 0.00011859,
        "meta_inclination": 0.0371,
        "meta_ra_of_asc_node": 95.8596,
        "meta_arg_of_pericenter": 177.2098,
        "meta_mean_anomaly": 290.2335,
        "meta_ephemeris_type": 0,
        "meta_classification_type": "U",
        "meta_norad_cat_id": 41836,
        "meta_element_set_no": 999,
        "meta_rev_at_epoch": 3334,
        "meta_bstar": 0,
        "meta_mean_motion_dot": -2.62e-06,
        "meta_mean_motion_ddot": 0,
        "tle_line1": "1 41836U 16064A   25346.94622677 -.00000262  00000+0  00000+0 0  9991",
        "tle_line2": "2 41836   0.0371  95.8596 0001185 177.2098 290.2335  1.00273884 33346"
      },
      "geometry": {
        "type": "Point",
        "coordinates": [
          145.99171322988488,
          0.028117535073497887
        ]
      }
    }
  ]
}